{"type": "FeatureCollection", "features": [ {"type": "Feature", "properties": {"norad_id": 66859, "name": "STARLINK-35646", "group": "last-30-days", "lat": -28.663404947756433, "lon": -92.65370760048532, "alt_km": 395.7251828638691, "timestamp": "2025-12-24T09:46:29.716320+00:00", "meta": {"OBJECT_NAME": "STARLINK-35646", "OBJECT_ID": "2025-281M", "EPOCH": "2025-12-24T04:00:01.998720", "MEAN_MOTION": 15.58959479, "ECCENTRICITY": 0.0001377, "INCLINATION": 42.9998, "RA_OF_ASC_NODE": 52.8516, "ARG_OF_PERICENTER": 265.3201, "MEAN_ANOMALY": 47.8785, "EPHEMERIS_TYPE": 0, "CLASSIFICATION_TYPE": "U", "NORAD_CAT_ID": 66859, "ELEMENT_SET_NO": 999, "REV_AT_EPOCH": 322, "BSTAR": -0.028423, "MEAN_MOTION_DOT": -0.01992075, "MEAN_MOTION_DDOT": 0}, "tle": {"line1": "1 66859U 25281M   25358.16668980 -.01992075  00000+0 -28423-1 0  9993", "line2": "2 66859  42.9998  52.8516 0001377 265.3201  47.8785 15.58959479  3229"}}, "geometry": {"type": "Point", "coordinates": [-92.65370760048532, -28.663404947756433]}}, {"type": "Feature", "properties": {"norad_id": 66860, "name": "STARLINK-35987", "group": "last-30-days", "lat": -33.61268715955915, "lon": -83.08913478181019, "alt_km": 396.06839927607143, "timestamp": "2025-12-24T09:46:29.716330+00:00", "meta": {"OBJECT_NAME": "STARLINK-35987", "OBJECT_ID": "2025-281N", "EPOCH": "2025-12-24T04:00:01.998720", "MEAN_MOTION": 15.58952571, "ECCENTRICITY": 0.0001141, "INCLINATION": 43.0001, "RA_OF_ASC_NODE": 52.8284, "ARG_OF_PERICENTER": 265.8117, "MEAN_ANOMALY": 56.9747, "EPHEMERIS_TYPE": 0, "CLASSIFICATION_TYPE": "U", "NORAD_CAT_ID": 66860, "ELEMENT_SET_NO": 999, "REV_AT_EPOCH": 322, "BSTAR": -0.028295, "MEAN_MOTION_DOT": -0.01983631, "MEAN_MOTION_DDOT": 0}, "tle": {"line1": "1 66860U 25281N   25358.16668980 -.01983631  00000+0 -28295-1 0  9990", "line2": "2 66860  43.0001  52.8284 0001141 265.8117  56.9747 15.58952571  3225"}}, "geometry": {"type": "Point", "coordinates": [-83.08913478181019, -33.61268715955915]}}, {"type": "Feature", "properties": {"norad_id": 66861, "name": "STARLINK-35991", "group": "last-30-days", "lat": -30.72675960029187, "lon": -88.94888684789731, "alt_km": 395.9268306609483, "timestamp": "2025-12-24T09:46:29.716340+00:00", "meta": {"OBJECT_NAME": "STARLINK-35991", "OBJECT_ID": "2025-281P", "EPOCH": "2025-12-24T04:00:01.998720", "MEAN_MOTION": 15.5895511, "ECCENTRICITY": 0.0001223, "INCLINATION": 43, "RA_OF_ASC_NODE": 52.8428, "ARG_OF_PERICENTER": 267.808, "MEAN_ANOMALY": 49.2245, "EPHEMERIS_TYPE": 0, "CLASSIFICATION_TYPE": "U", "NORAD_CAT_ID": 66861, "ELEMENT_SET_NO": 999, "REV_AT_EPOCH": 322, "BSTAR": -0.028327, "MEAN_MOTION_DOT": -0.01985813, "MEAN_MOTION_DDOT": 0}, "tle": {"line1": "1 66861U 25281P   25358.16668980 -.01985813  00000+0 -28327-1 0  9991", "line2": "2 66861  43.0000  52.8428 0001223 267.8080  49.2245 15.58955110  3227"}}, "geometry": {"type": "Point", "coordinates": [-88.94888684789731, -30.72675960029187]}}, {"type": "Feature", "properties": {"norad_id": 66862, "name": "STARLINK-35974", "group": "last-30-days", "lat": -29.709182233052747, "lon": -90.81845023289692, "alt_km": 395.8158121613851, "timestamp": "2025-12-24T09:46:29.716350+00:00", "meta": {"OBJECT_NAME": "STARLINK-35974", "OBJECT_ID": "2025-281Q", "EPOCH": "2025-12-24T04:00:01.998720", "MEAN_MOTION": 15.58957035, "ECCENTRICITY": 0.0001248, "INCLINATION": 43, "RA_OF_ASC_NODE": 52.8472, "ARG_OF_PERICENTER": 263.1565, "MEAN_ANOMALY": 51.9603, "EPHEMERIS_TYPE": 0, "CLASSIFICATION_TYPE": "U", "NORAD_CAT_ID": 66862, "ELEMENT_SET_NO": 999, "REV_AT_EPOCH": 312, "BSTAR": -0.02839, "MEAN_MOTION_DOT": -0.01989825, "MEAN_MOTION_DDOT": 0}, "tle": {"line1": "1 66862U 25281Q   25358.16668980 -.01989825  00000+0 -28390-1 0  9999", "line2": "2 66862  43.0000  52.8472 0001248 263.1565  51.9603 15.58957035  3126"}}, "geometry": {"type": "Point", "coordinates": [-90.81845023289692, -29.709182233052747]}}, {"type": "Feature", "properties": {"norad_id": 66863, "name": "STARLINK-36134", "group": "last-30-days", "lat": -31.719487812965195, "lon": -87.03462949491556, "alt_km": 395.9007680187542, "timestamp": "2025-12-24T09:46:29.716362+00:00", "meta": {"OBJECT_NAME": "STARLINK-36134", "OBJECT_ID": "2025-281R", "EPOCH": "2025-12-24T04:00:01.998720", "MEAN_MOTION": 15.58952348, "ECCENTRICITY": 0.0001255, "INCLINATION": 43.0001, "RA_OF_ASC_NODE": 52.8386, "ARG_OF_PERICENTER": 263.2524, "MEAN_ANOMALY": 55.7001, "EPHEMERIS_TYPE": 0, "CLASSIFICATION_TYPE": "U", "NORAD_CAT_ID": 66863, "ELEMENT_SET_NO": 999, "REV_AT_EPOCH": 322, "BSTAR": -0.028278, "MEAN_MOTION_DOT": -0.01982628, "MEAN_MOTION_DDOT": 0}, "tle": {"line1": "1 66863U 25281R   25358.16668980 -.01982628  00000+0 -28278-1 0  9999", "line2": "2 66863  43.0001  52.8386 0001255 263.2524  55.7001 15.58952348  3223"}}, "geometry": {"type": "Point", "coordinates": [-87.03462949491556, -31.719487812965195]}}, {"type": "Feature", "properties": {"norad_id": 66864, "name": "STARLINK-36070", "group": "last-30-days", "lat": -32.68023787365774, "lon": -85.08669863725609, "alt_km": 395.8899296339778, "timestamp": "2025-12-24T09:46:29.716374+00:00", "meta": {"OBJECT_NAME": "STARLINK-36070", "OBJECT_ID": "2025-281S", "EPOCH": "2025-12-24T04:00:01.998720", "MEAN_MOTION": 15.58958049, "ECCENTRICITY": 0.0001495, "INCLINATION": 43.0001, "RA_OF_ASC_NODE": 52.8325, "ARG_OF_PERICENTER": 270.3834, "MEAN_ANOMALY": 50.484, "EPHEMERIS_TYPE": 0, "CLASSIFICATION_TYPE": "U", "NORAD_CAT_ID": 66864, "ELEMENT_SET_NO": 999, "REV_AT_EPOCH": 325, "BSTAR": -0.028405, "MEAN_MOTION_DOT": -0.01990949, "MEAN_MOTION_DDOT": 0}, "tle": {"line1": "1 66864U 25281S   25358.16668980 -.01990949  00000+0 -28405-1 0  9997", "line2": "2 66864  43.0001  52.8325 0001495 270.3834  50.4840 15.58958049  3256"}}, "geometry": {"type": "Point", "coordinates": [-85.08669863725609, -32.68023787365774]}}, {"type": "Feature", "properties": {"norad_id": 66865, "name": "STARLINK-36117", "group": "last-30-days", "lat": -34.50979258694752, "lon": -81.05402967360362, "alt_km": 396.0945823968277, "timestamp": "2025-12-24T09:46:29.716386+00:00", "meta": {"OBJECT_NAME": "STARLINK-36117", "OBJECT_ID": "2025-281T", "EPOCH": "2025-12-24T04:00:01.998720", "MEAN_MOTION": 15.58953233, "ECCENTRICITY": 0.000116, "INCLINATION": 43.0001, "RA_OF_ASC_NODE": 52.8245, "ARG_OF_PERICENTER": 266.7397, "MEAN_ANOMALY": 57.9606, "EPHEMERIS_TYPE": 0, "CLASSIFICATION_TYPE": "U", "NORAD_CAT_ID": 66865, "ELEMENT_SET_NO": 999, "REV_AT_EPOCH": 322, "BSTAR": -0.028266, "MEAN_MOTION_DOT": -0.01981907, "MEAN_MOTION_DDOT": 0}, "tle": {"line1": "1 66865U 25281T   25358.16668980 -.01981907  00000+0 -28266-1 0  9997", "line2": "2 66865  43.0001  52.8245 0001160 266.7397  57.9606 15.58953233  3229"}}, "geometry": {"type": "Point", "coordinates": [-81.05402967360362, -34.50979258694752]}}, {"type": "Feature", "properties": {"norad_id": 66866, "name": "STARLINK-36126", "group": "last-30-days", "lat": -35.374143305641915, "lon": -78.97321410975735, "alt_km": 396.03528636338433, "timestamp": "2025-12-24T09:46:29.716398+00:00", "meta": {"OBJECT_NAME": "STARLINK-36126", "OBJECT_ID": "2025-281U", "EPOCH": "2025-12-24T04:00:01.998720", "MEAN_MOTION": 15.58957842, "ECCENTRICITY": 0.0001328, "INCLINATION": 43.0001, "RA_OF_ASC_NODE": 52.8182, "ARG_OF_PERICENTER": 267.2607, "MEAN_ANOMALY": 59.3583, "EPHEMERIS_TYPE": 0, "CLASSIFICATION_TYPE": "U", "NORAD_CAT_ID": 66866, "ELEMENT_SET_NO": 999, "REV_AT_EPOCH": 325, "BSTAR": -0.02843, "MEAN_MOTION_DOT": -0.0199237, "MEAN_MOTION_DDOT": 0}, "tle": {"line1": "1 66866U 25281U   25358.16668980 -.01992370  00000+0 -28430-1 0  9997", "line2": "2 66866  43.0001  52.8182 0001328 267.2607  59.3583 15.58957842  3259"}}, "geometry": {"type": "Point", "coordinates": [-78.97321410975735, -35.374143305641915]}}, {"type": "Feature", "properties": {"norad_id": 66867, "name": "STARLINK-36101", "group": "last-30-days", "lat": -36.20002114675294, "lon": -76.85027378979876, "alt_km": 396.0843775038911, "timestamp": "2025-12-24T09:46:29.716409+00:00", "meta": {"OBJECT_NAME": "STARLINK-36101", "OBJECT_ID": "2025-281V", "EPOCH": "2025-12-24T04:00:01.998720", "MEAN_MOTION": 15.58957374, "ECCENTRICITY": 0.0001342, "INCLINATION": 43, "RA_OF_ASC_NODE": 52.8144, "ARG_OF_PERICENTER": 270.7653, "MEAN_ANOMALY": 57.769, "EPHEMERIS_TYPE": 0, "CLASSIFICATION_TYPE": "U", "NORAD_CAT_ID": 66867, "ELEMENT_SET_NO": 999, "REV_AT_EPOCH": 306, "BSTAR": -0.028377, "MEAN_MOTION_DOT": -0.01989127, "MEAN_MOTION_DDOT": 0}, "tle": {"line1": "1 66867U 25281V   25358.16668980 -.01989127  00000+0 -28377-1 0  9994", "line2": "2 66867  43.0000  52.8144 0001342 270.7653  57.7690 15.58957374  3063"}}, "geometry": {"type": "Point", "coordinates": [-76.85027378979876, -36.20002114675294]}}, {"type": "Feature", "properties": {"norad_id": 66868, "name": "STARLINK-36108", "group": "last-30-days", "lat": -36.98865907289089, "lon": -74.68171497920264, "alt_km": 396.1180288550604, "timestamp": "2025-12-24T09:46:29.716422+00:00", "meta": {"OBJECT_NAME": "STARLINK-36108", "OBJECT_ID": "2025-281W", "EPOCH": "2025-12-24T04:00:01.998720", "MEAN_MOTION": 15.58958266, "ECCENTRICITY": 0.0001365, "INCLINATION": 43.0002, "RA_OF_ASC_NODE": 52.8094, "ARG_OF_PERICENTER": 272.8958, "MEAN_ANOMALY": 57.5564, "EPHEMERIS_TYPE": 0, "CLASSIFICATION_TYPE": "U", "NORAD_CAT_ID": 66868, "ELEMENT_SET_NO": 999, "REV_AT_EPOCH": 306, "BSTAR": -0.028427, "MEAN_MOTION_DOT": -0.01992225, "MEAN_MOTION_DDOT": 0}, "tle": {"line1": "1 66868U 25281W   25358.16668980 -.01992225  00000+0 -28427-1 0  9994", "line2": "2 66868  43.0002  52.8094 0001365 272.8958  57.5564 15.58958266  3065"}}, "geometry": {"type": "Point", "coordinates": [-74.68171497920264, -36.98865907289089]}}]}